STARLINK-36654          
1 67838U 26033T   26065.77819549  .00288075  00000+0  13183-2 0  9992
2 67838  42.9972 289.1965 0002532 265.9292  94.1291 15.82132816  4168
STARLINK-36652          
1 67839U 26033U   26065.77744977  .00294550  00000+0  13479-2 0  9998
2 67839  42.9971 289.1905 0002265 282.0055  78.0563 15.82117018  4162
STARLINK-36651          
1 67840U 26033V   26065.77669972  .00300548  00000+0  13756-2 0  9994
2 67840  42.9975 289.1847 0001787 279.3338  80.7332 15.82097965  4166
STARLINK-36656          
1 67841U 26033W   26065.77595026  .00256447  00000+0  11800-2 0  9999
2 67841  42.9977 289.1782 0002060 269.9308  90.1327 15.82100341  4166
STARLINK-36653          
1 67842U 26033X   26065.77519933  .00170928  00000+0  79611-3 0  9997
2 67842  42.9971 289.1718 0002133 273.9032  86.1595 15.82075228  4167
STARLINK-36589          
1 67843U 26033Y   26065.77444994  .00346300  00000+0  15727-2 0  9998
2 67843  42.9969 289.1661 0002226 284.6719  75.3906 15.82145151  4165
STARLINK-36598          
1 67844U 26033Z   26065.77370152  .00232448  00000+0  10727-2 0  9995
2 67844  42.9974 289.1598 0002072 271.1308  88.9327 15.82102123  4164
STARLINK-36606          
1 67845U 26033AA  26065.64668657  .00245242  00000+0  11327-2 0  9995
2 67845  42.9975 289.9271 0002161 263.8727  96.1898 15.82050460  4142
STARLINK-36658          
1 67846U 26033AB  26065.77220137  .00324714  00000+0  14792-2 0  9998
2 67846  42.9973 289.1471 0002285 273.7474  86.3136 15.82135157  4166
STARLINK-36618          
1 67847U 26033AC  26065.83334490 -.00106314  11962-4 -30711-3 0  9994
2 67847  42.9834 286.8013 0001787 289.6581 116.3630 15.91600518  4206
STARLINK-36660          
1 67848U 26033AD  26065.77145374  .00242159  00000+0  11160-2 0  9997
2 67848  42.9974 289.1409 0002386 276.0324  84.0276 15.82104459  4163
STARLINK-36602          
1 67849U 26033AE  26065.77070333  .00373228  00000+0  16889-2 0  9995
2 67849  42.9969 289.1340 0002231 265.0200  95.0417 15.82151913  4168
