CCSDS_OMM_VERS = 2.0
CREATION_DATE  = 
ORIGINATOR     = 

OBJECT_NAME    = STARLINK-36654
OBJECT_ID      = 2026-033T
CENTER_NAME    = EARTH
REF_FRAME      = TEME
TIME_SYSTEM    = UTC
MEAN_ELEMENT_THEORY = SGP/SGP4

EPOCH          = 2026-03-06T18:40:36.090336
MEAN_MOTION    = 15.82132816
ECCENTRICITY   = .0002532
INCLINATION    = 42.9972
RA_OF_ASC_NODE = 289.1965
ARG_OF_PERICENTER = 265.9292
MEAN_ANOMALY   = 94.1291

EPHEMERIS_TYPE = 0
CLASSIFICATION_TYPE = U
NORAD_CAT_ID   = 67838
ELEMENT_SET_NO = 999
REV_AT_EPOCH   = 416
BSTAR          = .13183E-2
MEAN_MOTION_DOT = .288075E-2
MEAN_MOTION_DDOT = 0

CCSDS_OMM_VERS = 2.0
CREATION_DATE  = 
ORIGINATOR     = 

OBJECT_NAME    = STARLINK-36652
OBJECT_ID      = 2026-033U
CENTER_NAME    = EARTH
REF_FRAME      = TEME
TIME_SYSTEM    = UTC
MEAN_ELEMENT_THEORY = SGP/SGP4

EPOCH          = 2026-03-06T18:39:31.660128
MEAN_MOTION    = 15.82117018
ECCENTRICITY   = .0002265
INCLINATION    = 42.9971
RA_OF_ASC_NODE = 289.1905
ARG_OF_PERICENTER = 282.0055
MEAN_ANOMALY   = 78.0563

EPHEMERIS_TYPE = 0
CLASSIFICATION_TYPE = U
NORAD_CAT_ID   = 67839
ELEMENT_SET_NO = 999
REV_AT_EPOCH   = 416
BSTAR          = .13479E-2
MEAN_MOTION_DOT = .29455E-2
MEAN_MOTION_DDOT = 0

CCSDS_OMM_VERS = 2.0
CREATION_DATE  = 
ORIGINATOR     = 

OBJECT_NAME    = STARLINK-36651
OBJECT_ID      = 2026-033V
CENTER_NAME    = EARTH
REF_FRAME      = TEME
TIME_SYSTEM    = UTC
MEAN_ELEMENT_THEORY = SGP/SGP4

EPOCH          = 2026-03-06T18:38:26.855808
MEAN_MOTION    = 15.82097965
ECCENTRICITY   = .0001787
INCLINATION    = 42.9975
RA_OF_ASC_NODE = 289.1847
ARG_OF_PERICENTER = 279.3338
MEAN_ANOMALY   = 80.7332

EPHEMERIS_TYPE = 0
CLASSIFICATION_TYPE = U
NORAD_CAT_ID   = 67840
ELEMENT_SET_NO = 999
REV_AT_EPOCH   = 416
BSTAR          = .13756E-2
MEAN_MOTION_DOT = .300548E-2
MEAN_MOTION_DDOT = 0

CCSDS_OMM_VERS = 2.0
CREATION_DATE  = 
ORIGINATOR     = 

OBJECT_NAME    = STARLINK-36656
OBJECT_ID      = 2026-033W
CENTER_NAME    = EARTH
REF_FRAME      = TEME
TIME_SYSTEM    = UTC
MEAN_ELEMENT_THEORY = SGP/SGP4

EPOCH          = 2026-03-06T18:37:22.102464
MEAN_MOTION    = 15.82100341
ECCENTRICITY   = .000206
INCLINATION    = 42.9977
RA_OF_ASC_NODE = 289.1782
ARG_OF_PERICENTER = 269.9308
MEAN_ANOMALY   = 90.1327

EPHEMERIS_TYPE = 0
CLASSIFICATION_TYPE = U
NORAD_CAT_ID   = 67841
ELEMENT_SET_NO = 999
REV_AT_EPOCH   = 416
BSTAR          = .118E-2
MEAN_MOTION_DOT = .256447E-2
MEAN_MOTION_DDOT = 0

CCSDS_OMM_VERS = 2.0
CREATION_DATE  = 
ORIGINATOR     = 

OBJECT_NAME    = STARLINK-36653
OBJECT_ID      = 2026-033X
CENTER_NAME    = EARTH
REF_FRAME      = TEME
TIME_SYSTEM    = UTC
MEAN_ELEMENT_THEORY = SGP/SGP4

EPOCH          = 2026-03-06T18:36:17.222112
MEAN_MOTION    = 15.82075228
ECCENTRICITY   = .0002133
INCLINATION    = 42.9971
RA_OF_ASC_NODE = 289.1718
ARG_OF_PERICENTER = 273.9032
MEAN_ANOMALY   = 86.1595

EPHEMERIS_TYPE = 0
CLASSIFICATION_TYPE = U
NORAD_CAT_ID   = 67842
ELEMENT_SET_NO = 999
REV_AT_EPOCH   = 416
BSTAR          = .79611E-3
MEAN_MOTION_DOT = .170928E-2
MEAN_MOTION_DDOT = 0

CCSDS_OMM_VERS = 2.0
CREATION_DATE  = 
ORIGINATOR     = 

OBJECT_NAME    = STARLINK-36589
OBJECT_ID      = 2026-033Y
CENTER_NAME    = EARTH
REF_FRAME      = TEME
TIME_SYSTEM    = UTC
MEAN_ELEMENT_THEORY = SGP/SGP4

EPOCH          = 2026-03-06T18:35:12.474816
MEAN_MOTION    = 15.82145151
ECCENTRICITY   = .0002226
INCLINATION    = 42.9969
RA_OF_ASC_NODE = 289.1661
ARG_OF_PERICENTER = 284.6719
MEAN_ANOMALY   = 75.3906

EPHEMERIS_TYPE = 0
CLASSIFICATION_TYPE = U
NORAD_CAT_ID   = 67843
ELEMENT_SET_NO = 999
REV_AT_EPOCH   = 416
BSTAR          = .15727E-2
MEAN_MOTION_DOT = .3463E-2
MEAN_MOTION_DDOT = 0

CCSDS_OMM_VERS = 2.0
CREATION_DATE  = 
ORIGINATOR     = 

OBJECT_NAME    = STARLINK-36598
OBJECT_ID      = 2026-033Z
CENTER_NAME    = EARTH
REF_FRAME      = TEME
TIME_SYSTEM    = UTC
MEAN_ELEMENT_THEORY = SGP/SGP4

EPOCH          = 2026-03-06T18:34:07.811328
MEAN_MOTION    = 15.82102123
ECCENTRICITY   = .0002072
INCLINATION    = 42.9974
RA_OF_ASC_NODE = 289.1598
ARG_OF_PERICENTER = 271.1308
MEAN_ANOMALY   = 88.9327

EPHEMERIS_TYPE = 0
CLASSIFICATION_TYPE = U
NORAD_CAT_ID   = 67844
ELEMENT_SET_NO = 999
REV_AT_EPOCH   = 416
BSTAR          = .10727E-2
MEAN_MOTION_DOT = .232448E-2
MEAN_MOTION_DDOT = 0

CCSDS_OMM_VERS = 2.0
CREATION_DATE  = 
ORIGINATOR     = 

OBJECT_NAME    = STARLINK-36606
OBJECT_ID      = 2026-033AA
CENTER_NAME    = EARTH
REF_FRAME      = TEME
TIME_SYSTEM    = UTC
MEAN_ELEMENT_THEORY = SGP/SGP4

EPOCH          = 2026-03-06T15:31:13.719648
MEAN_MOTION    = 15.82050460
ECCENTRICITY   = .00021619
INCLINATION    = 42.9975
RA_OF_ASC_NODE = 289.9271
ARG_OF_PERICENTER = 263.8727
MEAN_ANOMALY   = 96.1898

EPHEMERIS_TYPE = 0
CLASSIFICATION_TYPE = U
NORAD_CAT_ID   = 67845
ELEMENT_SET_NO = 999
REV_AT_EPOCH   = 414
BSTAR          = .11326517E-2
MEAN_MOTION_DOT = .245242E-2
MEAN_MOTION_DDOT = 0

CCSDS_OMM_VERS = 2.0
CREATION_DATE  = 
ORIGINATOR     = 

OBJECT_NAME    = STARLINK-36658
OBJECT_ID      = 2026-033AB
CENTER_NAME    = EARTH
REF_FRAME      = TEME
TIME_SYSTEM    = UTC
MEAN_ELEMENT_THEORY = SGP/SGP4

EPOCH          = 2026-03-06T18:31:58.198368
MEAN_MOTION    = 15.82135157
ECCENTRICITY   = .0002285
INCLINATION    = 42.9973
RA_OF_ASC_NODE = 289.1471
ARG_OF_PERICENTER = 273.7474
MEAN_ANOMALY   = 86.3136

EPHEMERIS_TYPE = 0
CLASSIFICATION_TYPE = U
NORAD_CAT_ID   = 67846
ELEMENT_SET_NO = 999
REV_AT_EPOCH   = 416
BSTAR          = .14792E-2
MEAN_MOTION_DOT = .324714E-2
MEAN_MOTION_DDOT = 0

CCSDS_OMM_VERS = 2.0
CREATION_DATE  = 
ORIGINATOR     = 

OBJECT_NAME    = STARLINK-36618
OBJECT_ID      = 2026-033AC
CENTER_NAME    = EARTH
REF_FRAME      = TEME
TIME_SYSTEM    = UTC
MEAN_ELEMENT_THEORY = SGP/SGP4

EPOCH          = 2026-03-06T20:00:00.999360
MEAN_MOTION    = 15.91600518
ECCENTRICITY   = .0001787
INCLINATION    = 42.9834
RA_OF_ASC_NODE = 286.8013
ARG_OF_PERICENTER = 289.6581
MEAN_ANOMALY   = 116.3630

EPHEMERIS_TYPE = 0
CLASSIFICATION_TYPE = U
NORAD_CAT_ID   = 67847
ELEMENT_SET_NO = 999
REV_AT_EPOCH   = 420
BSTAR          = -.30711E-3
MEAN_MOTION_DOT = -.106314E-2
MEAN_MOTION_DDOT = .11962E-4

CCSDS_OMM_VERS = 2.0
CREATION_DATE  = 
ORIGINATOR     = 

OBJECT_NAME    = STARLINK-36660
OBJECT_ID      = 2026-033AD
CENTER_NAME    = EARTH
REF_FRAME      = TEME
TIME_SYSTEM    = UTC
MEAN_ELEMENT_THEORY = SGP/SGP4

EPOCH          = 2026-03-06T18:30:53.603136
MEAN_MOTION    = 15.82104459
ECCENTRICITY   = .0002386
INCLINATION    = 42.9974
RA_OF_ASC_NODE = 289.1409
ARG_OF_PERICENTER = 276.0324
MEAN_ANOMALY   = 84.0276

EPHEMERIS_TYPE = 0
CLASSIFICATION_TYPE = U
NORAD_CAT_ID   = 67848
ELEMENT_SET_NO = 999
REV_AT_EPOCH   = 416
BSTAR          = .1116E-2
MEAN_MOTION_DOT = .242159E-2
MEAN_MOTION_DDOT = 0

CCSDS_OMM_VERS = 2.0
CREATION_DATE  = 
ORIGINATOR     = 

OBJECT_NAME    = STARLINK-36602
OBJECT_ID      = 2026-033AE
CENTER_NAME    = EARTH
REF_FRAME      = TEME
TIME_SYSTEM    = UTC
MEAN_ELEMENT_THEORY = SGP/SGP4

EPOCH          = 2026-03-06T18:29:48.767712
MEAN_MOTION    = 15.82151913
ECCENTRICITY   = .0002231
INCLINATION    = 42.9969
RA_OF_ASC_NODE = 289.1340
ARG_OF_PERICENTER = 265.0200
MEAN_ANOMALY   = 95.0417

EPHEMERIS_TYPE = 0
CLASSIFICATION_TYPE = U
NORAD_CAT_ID   = 67849
ELEMENT_SET_NO = 999
REV_AT_EPOCH   = 416
BSTAR          = .16889E-2
MEAN_MOTION_DOT = .373228E-2
MEAN_MOTION_DDOT = 0

